NORAD_CAT_ID,OBJECT_NAME,OBJECT_TYPE,EPOCH,MEAN_MOTION,ECCENTRICITY,INCLINATION,RA_OF_ASC_NODE,ARG_OF_PERICENTER,MEAN_ANOMALY,BSTAR,MEAN_MOTION_DOT,MEAN_MOTION_DDOT,TLE_LINE0,TLE_LINE1,TLE_LINE2,SEMIMAJOR_AXIS,PERIOD,APOGEE,PERIGEE,DECAYED
51859.0,STARLINK-3560,PAYLOAD,2024-06-29 12:05:03,15.08824495,0.0001396,53.2183,264.2776,85.3776,274.7376,-0.0001057,-1.969e-05,0.0,0 STARLINK-3560,1 51859U 22022H   24181.50350904 -.00001969  00000-0 -10570-3 0  9991,2 51859  53.2183 264.2776 0001396  85.3776 274.7376 15.08824495129836,6917.928,95.439,540.759,538.827,0.0
51859.0,STARLINK-3560,PAYLOAD,2024-06-30 05:34:17,15.0883211,0.0001316,53.2185,261.0066,86.1474,273.9668,7.6608e-05,9.31e-06,0.0,0 STARLINK-3560,1 51859U 22022H   24182.23214281  .00000931  00000-0  76608-4 0  9990,2 51859  53.2185 261.0066 0001316  86.1474 273.9668 15.08832110129941,6917.905,95.438,540.68,538.859,0.0
51859.0,STARLINK-3560,PAYLOAD,2024-06-30 11:55:49,15.08842238,0.0001345,53.2171,259.8173,79.7631,280.3513,6.8391e-05,8.01e-06,0.0,0 STARLINK-3560,1 51859U 22022H   24182.49710008  .00000801  00000-0  68391-4 0  9992,2 51859  53.2171 259.8173 0001345  79.7631 280.3513 15.08842238129982,6917.874,95.437,540.669,538.808,0.0
51859.0,STARLINK-3560,PAYLOAD,2024-07-01 05:25:05,15.08819744,0.0001349,53.2164,256.5447,77.4999,282.6144,0.00055032,8.476e-05,0.0,0 STARLINK-3560,1 51859U 22022H   24183.22575625  .00008476  00000-0  55032-3 0  9991,2 51859  53.2164 256.5447 0001349  77.4999 282.6144 15.08819744130093,6917.942,95.439,540.741,538.874,0.0
51859.0,STARLINK-3560,PAYLOAD,2024-07-01 11:46:38,15.08812211,0.0001197,53.2159,255.3549,73.0778,287.0345,0.00039199,5.951e-05,0.0,0 STARLINK-3560,1 51859U 22022H   24183.49072306  .00005951  00000-0  39199-3 0  9999,2 51859  53.2159 255.3549 0001197  73.0778 287.0345 15.08812211130134,6917.965,95.439,540.658,539.002,0.0
51859.0,STARLINK-3560,PAYLOAD,2024-07-01 14:57:24,15.08822189,0.0001285,53.2157,254.7599,68.0706,292.0423,5.1797e-05,5.36e-06,0.0,0 STARLINK-3560,1 51859U 22022H   24183.62319755  .00000536  00000-0  51797-4 0  9999,2 51859  53.2157 254.7599 0001285  68.0706 292.0423 15.08822189130153,6917.935,95.439,540.689,538.911,0.0
51859.0,STARLINK-3560,PAYLOAD,2024-07-01 21:18:56,15.08831032,0.0001398,53.2176,253.5729,73.6177,286.4969,0.00013543,1.868e-05,0.0,0 STARLINK-3560,1 51859U 22022H   24183.88815540  .00001868  00000-0  13543-3 0  9995,2 51859  53.2176 253.5729 0001398  73.6177 286.4969 15.08831032130198,6917.908,95.438,540.74,538.806,0.0
51859.0,STARLINK-3560,PAYLOAD,2024-07-02 05:15:51,15.08838749,0.0001209,53.2173,252.0852,73.3952,286.7172,8.0101e-05,9.87e-06,0.0,0 STARLINK-3560,1 51859U 22022H   24184.21935069  .00000987  00000-0  80101-4 0  9998,2 51859  53.2173 252.0852 0001209  73.3952 286.7172 15.08838749130242,6917.884,95.438,540.586,538.913,0.0
51859.0,STARLINK-3560,PAYLOAD,2024-07-02 13:12:47,15.0884896,0.0001268,53.2165,250.5992,75.4274,284.6859,0.00022797,3.343e-05,0.0,0 STARLINK-3560,1 51859U 22022H   24184.55054573  .00003343  00000-0  22797-3 0  9992,2 51859  53.2165 250.5992 0001268  75.4274 284.6859 15.08848960130296,6917.853,95.437,540.595,538.841,0.0
51859.0,STARLINK-3560,PAYLOAD,2024-07-03 05:06:38,15.08841698,0.0001313,53.2163,247.6259,79.2694,280.8446,0.00028889,4.313e-05,0.0,0 STARLINK-3560,1 51859U 22022H   24185.21294919  .00004313  00000-0  28889-3 0  9992,2 51859  53.2163 247.6259 0001313  79.2694 280.8446 15.08841698130398,6917.875,95.437,540.649,538.832,0.0
51859.0,STARLINK-3560,PAYLOAD,2024-07-03 21:00:29,15.08848358,0.0001326,53.216,244.6524,80.3499,279.7643,0.00012325,1.675e-05,0.0,0 STARLINK-3560,1 51859U 22022H   24185.87534409  .00001675  00000-0  12325-3 0  9991,2 51859  53.2160 244.6524 0001326  80.3499 279.7643 15.08848358130494,6917.855,95.437,540.637,538.803,0.0
51859.0,STARLINK-3560,PAYLOAD,2024-07-04 12:54:21,15.08841829,0.0001306,53.2168,241.6785,81.3264,278.7876,1.7803e-05,-5e-08,0.0,0 STARLINK-3560,1 51859U 22022H   24186.53775082 -.00000005  00000-0  17803-4 0  9993,2 51859  53.2168 241.6785 0001306  81.3264 278.7876 15.08841829130591,6917.875,95.437,540.643,538.836,0.0
51859.0,STARLINK-3560,PAYLOAD,2024-07-04 20:51:16,15.0885008,0.0001324,53.217,240.1922,83.8326,276.2817,4.8852e-05,4.9e-06,0.0,0 STARLINK-3560,1 51859U 22022H   24186.86894323  .00000490  00000-0  48852-4 0  9994,2 51859  53.2170 240.1922 0001324  83.8326 276.2817 15.08850080130640,6917.85,95.437,540.631,538.799,0.0
51859.0,STARLINK-3560,PAYLOAD,2024-07-05 11:09:45,15.08843821,0.0001288,53.2155,237.5153,86.7869,273.327,0.00011776,1.587e-05,0.0,0 STARLINK-3560,1 51859U 22022H   24187.46510441  .00001587  00000-0  11776-3 0  9999,2 51859  53.2155 237.5153 0001288  86.7869 273.3270 15.08843821130738,6917.869,95.437,540.625,538.843,0.0
51859.0,STARLINK-3560,PAYLOAD,2024-07-05 20:42:03,15.08849348,0.0001251,53.2152,235.7306,86.1203,273.9933,0.00015279,2.145e-05,0.0,0 STARLINK-3560,1 51859U 22022H   24187.86254080  .00002145  00000-0  15279-3 0  9990,2 51859  53.2152 235.7306 0001251  86.1203 273.9933 15.08849348130799,6917.852,95.437,540.582,538.851,0.0
51859.0,STARLINK-3560,PAYLOAD,2024-07-06 12:35:55,15.08840201,0.0001415,53.2174,232.756,92.9026,267.2129,3.8434e-05,3.24e-06,0.0,0 STARLINK-3560,1 51859U 22022H   24188.52494721  .00000324  00000-0  38434-4 0  9998,2 51859  53.2174 232.7560 0001415  92.9026 267.2129 15.08840201130895,6917.88,95.438,540.724,538.766,0.0
51859.0,STARLINK-3560,PAYLOAD,2024-07-06 20:32:50,15.08842459,0.0001428,53.2173,231.2689,93.834,266.2815,4.5851e-05,4.42e-06,0.0,0 STARLINK-3560,1 51859U 22022H   24188.85614521  .00000442  00000-0  45851-4 0  9998,2 51859  53.2173 231.2689 0001428  93.8340 266.2815 15.08842459130947,6917.873,95.437,540.726,538.75,0.0
51859.0,STARLINK-3560,PAYLOAD,2024-07-07 09:15:56,15.08840917,0.0001412,53.2174,228.8908,92.5439,267.5715,6.5137e-06,-1.84e-06,0.0,0 STARLINK-3560,1 51859U 22022H   24189.38606699 -.00000184  00000-0  65137-5 0  9998,2 51859  53.2174 228.8908 0001412  92.5439 267.5715 15.08840917131022,6917.878,95.437,540.719,538.766,0.0
51859.0,STARLINK-3560,PAYLOAD,2024-07-08 09:06:42,15.08844858,0.0001511,53.2176,224.4305,93.4599,266.6566,0.00012307,1.671e-05,0.0,0 STARLINK-3560,1 51859U 22022H   24190.37966091  .00001671  00000-0  12307-3 0  9994,2 51859  53.2176 224.4305 0001511  93.4599 266.6566 15.08844858131172,6917.866,95.437,540.776,538.685,0.0
51859.0,STARLINK-3560,PAYLOAD,2024-07-09 07:22:07,15.08835635,0.0001443,53.2169,220.2667,93.6947,266.421,5.284e-05,5.53e-06,0.0,0 STARLINK-3560,1 51859U 22022H   24191.30702716  .00000553  00000-0  52840-4 0  9995,2 51859  53.2169 220.2667 0001443  93.6947 266.4210 15.08835635131315,6917.894,95.438,540.757,538.76,0.0
51859.0,STARLINK-3560,PAYLOAD,2024-07-10 11:59:04,15.08834571,0.0001393,53.2165,214.9145,92.2545,267.8606,-7.2616e-05,-1.443e-05,0.0,0 STARLINK-3560,1 51859U 22022H   24192.49935386 -.00001443  00000-0 -72616-4 0  9991,2 51859  53.2165 214.9145 0001393  92.2545 267.8606 15.08834571131496,6917.897,95.438,540.726,538.798,0.0
51859.0,STARLINK-3560,PAYLOAD,2024-07-11 10:14:28,15.08833873,0.0001435,53.2165,210.7516,88.9588,271.1569,7.2771e-05,8.7e-06,0.0,0 STARLINK-3560,1 51859U 22022H   24193.42671352  .00000870  00000-0  72771-4 0  9998,2 51859  53.2165 210.7516 0001435  88.9588 271.1569 15.08833873131634,6917.899,95.438,540.757,538.771,0.0
51859.0,STARLINK-3560,PAYLOAD,2024-07-11 18:11:23,15.08835986,0.000141,53.2164,209.2647,89.7669,270.3485,8.9784e-05,1.141e-05,0.0,0 STARLINK-3560,1 51859U 22022H   24193.75791284  .00001141  00000-0  89784-4 0  9995,2 51859  53.2164 209.2647 0001410  89.7669 270.3485 15.08835986131683,6917.893,95.438,540.733,538.782,0.0
51859.0,STARLINK-3560,PAYLOAD,2024-07-12 06:54:28,15.0883873,0.0001414,53.2162,206.8858,90.3879,269.7275,0.00014062,1.951e-05,0.0,0 STARLINK-3560,1 51859U 22022H   24194.28783159  .00001951  00000-0  14062-3 0  9991,2 51859  53.2162 206.8858 0001414  90.3879 269.7275 15.08838730131761,6917.884,95.438,540.727,538.771,0.0
51859.0,STARLINK-3560,PAYLOAD,2024-07-12 18:02:10,15.08843528,0.0001419,53.2161,204.8041,86.8621,273.2534,0.00015221,2.136e-05,0.0,0 STARLINK-3560,1 51859U 22022H   24194.75150899  .00002136  00000-0  15221-3 0  9996,2 51859  53.2161 204.8041 0001419  86.8621 273.2534 15.08843528131839,6917.87,95.437,540.716,538.753,0.0
51859.0,STARLINK-3560,PAYLOAD,2024-07-13 05:09:52,15.08841384,0.0001454,53.2163,202.7223,91.0224,269.0935,7.1595e-05,8.52e-06,0.0,0 STARLINK-3560,1 51859U 22022H   24195.21519274  .00000852  00000-0  71595-4 0  9994,2 51859  53.2163 202.7223 0001454  91.0224 269.0935 15.08841384131900,6917.876,95.437,540.747,538.735,0.0
51859.0,STARLINK-3560,PAYLOAD,2024-07-13 09:56:01,15.08842215,0.0001455,53.2162,201.8302,89.9769,270.1389,7.3565e-05,8.83e-06,0.0,0 STARLINK-3560,1 51859U 22022H   24195.41391198  .00000883  00000-0  73565-4 0  9992,2 51859  53.2162 201.8302 0001455  89.9769 270.1389 15.08842215131931,6917.874,95.437,540.745,538.732,0.0
51859.0,STARLINK-3560,PAYLOAD,2024-07-13 17:52:57,15.08844056,0.0001457,53.2163,200.3435,89.8905,270.2254,7.6684e-05,9.33e-06,0.0,0 STARLINK-3560,1 51859U 22022H   24195.74511038  .00000933  00000-0  76684-4 0  9996,2 51859  53.2163 200.3435 0001457  89.8905 270.2254 15.08844056131988,6917.868,95.437,540.741,538.725,0.0
51859.0,STARLINK-3560,PAYLOAD,2024-07-14 06:36:02,15.08844492,0.0001535,53.2167,197.9648,92.1178,267.999,4.1832e-05,3.78e-06,0.0,0 STARLINK-3560,1 51859U 22022H   24196.27503054  .00000378  00000-0  41832-4 0  9994,2 51859  53.2167 197.9648 0001535  92.1178 267.9990 15.08844492132069,6917.867,95.437,540.794,538.67,0.0
51859.0,STARLINK-3560,PAYLOAD,2024-07-14 17:43:44,15.08845394,0.0001526,53.2168,195.8831,92.6376,267.4791,3.6115e-05,2.87e-06,0.0,0 STARLINK-3560,1 51859U 22022H   24196.73870877  .00000287  00000-0  36115-4 0  9992,2 51859  53.2168 195.8831 0001526  92.6376 267.4791 15.08845394132130,6917.864,95.437,540.785,538.673,0.0
